CCSDS_OMM_VERS = 2.0
CREATION_DATE  = 
ORIGINATOR     = 

OBJECT_NAME    = INTERCOSMOS 25
OBJECT_ID      = 1991-086A
CENTER_NAME    = EARTH
REF_FRAME      = TEME
TIME_SYSTEM    = UTC
MEAN_ELEMENT_THEORY = SGP/SGP4

EPOCH          = 2026-02-28T09:52:22.741248
MEAN_MOTION    = 12.11969368
ECCENTRICITY   = .1487088
INCLINATION    = 82.6068
RA_OF_ASC_NODE = 315.6154
ARG_OF_PERICENTER = 136.9210
MEAN_ANOMALY   = 235.8461

EPHEMERIS_TYPE = 0
CLASSIFICATION_TYPE = U
NORAD_CAT_ID   = 21819
ELEMENT_SET_NO = 999
REV_AT_EPOCH   = 49556
BSTAR          = .31341E-3
MEAN_MOTION_DOT = .1631E-4
MEAN_MOTION_DDOT = 0

CCSDS_OMM_VERS = 2.0
CREATION_DATE  = 
ORIGINATOR     = 

OBJECT_NAME    = SL-8 R/B
OBJECT_ID      = 1992-008B
CENTER_NAME    = EARTH
REF_FRAME      = TEME
TIME_SYSTEM    = UTC
MEAN_ELEMENT_THEORY = SGP/SGP4

EPOCH          = 2026-02-28T08:44:09.187872
MEAN_MOTION    = 13.75969872
ECCENTRICITY   = .003509
INCLINATION    = 82.9229
RA_OF_ASC_NODE = 274.7172
ARG_OF_PERICENTER = 158.7684
MEAN_ANOMALY   = 14.6534

EPHEMERIS_TYPE = 0
CLASSIFICATION_TYPE = U
NORAD_CAT_ID   = 21876
ELEMENT_SET_NO = 999
REV_AT_EPOCH   = 70813
BSTAR          = -.68702E-5
MEAN_MOTION_DOT = .9E-7
MEAN_MOTION_DDOT = 0

CCSDS_OMM_VERS = 2.0
CREATION_DATE  = 
ORIGINATOR     = 

OBJECT_NAME    = SL-8 R/B
OBJECT_ID      = 1992-020B
CENTER_NAME    = EARTH
REF_FRAME      = TEME
TIME_SYSTEM    = UTC
MEAN_ELEMENT_THEORY = SGP/SGP4

EPOCH          = 2026-02-28T12:24:09.676224
MEAN_MOTION    = 13.75548235
ECCENTRICITY   = .0028058
INCLINATION    = 82.9343
RA_OF_ASC_NODE = 160.5701
ARG_OF_PERICENTER = 325.4071
MEAN_ANOMALY   = 44.7551

EPHEMERIS_TYPE = 0
CLASSIFICATION_TYPE = U
NORAD_CAT_ID   = 21938
ELEMENT_SET_NO = 999
REV_AT_EPOCH   = 69987
BSTAR          = .5491E-4
MEAN_MOTION_DOT = .68E-6
MEAN_MOTION_DDOT = 0

CCSDS_OMM_VERS = 2.0
CREATION_DATE  = 
ORIGINATOR     = 

OBJECT_NAME    = USA 81
OBJECT_ID      = 1992-023A
CENTER_NAME    = EARTH
REF_FRAME      = TEME
TIME_SYSTEM    = UTC
MEAN_ELEMENT_THEORY = SGP/SGP4

EPOCH          = 2026-02-28T12:10:42.198240
MEAN_MOTION    = 14.32364349
ECCENTRICITY   = .000271
INCLINATION    = 85.0102
RA_OF_ASC_NODE = 136.7374
ARG_OF_PERICENTER = 85.3581
MEAN_ANOMALY   = 274.7921

EPHEMERIS_TYPE = 0
CLASSIFICATION_TYPE = U
NORAD_CAT_ID   = 21949
ELEMENT_SET_NO = 999
REV_AT_EPOCH   = 9347
BSTAR          = .61238E-4
MEAN_MOTION_DOT = .185E-5
MEAN_MOTION_DDOT = 0

CCSDS_OMM_VERS = 2.0
CREATION_DATE  = 
ORIGINATOR     = 

OBJECT_NAME    = COSMOS 2219
OBJECT_ID      = 1992-076A
CENTER_NAME    = EARTH
REF_FRAME      = TEME
TIME_SYSTEM    = UTC
MEAN_ELEMENT_THEORY = SGP/SGP4

EPOCH          = 2026-02-28T09:29:55.436928
MEAN_MOTION    = 14.14086686
ECCENTRICITY   = .0019447
INCLINATION    = 71.0608
RA_OF_ASC_NODE = 37.4955
ARG_OF_PERICENTER = 219.4455
MEAN_ANOMALY   = 140.5252

EPHEMERIS_TYPE = 0
CLASSIFICATION_TYPE = U
NORAD_CAT_ID   = 22219
ELEMENT_SET_NO = 999
REV_AT_EPOCH   = 71706
BSTAR          = .21374E-3
MEAN_MOTION_DOT = .36E-5
MEAN_MOTION_DDOT = 0

CCSDS_OMM_VERS = 2.0
CREATION_DATE  = 
ORIGINATOR     = 

OBJECT_NAME    = SL-16 R/B
OBJECT_ID      = 1992-076B
CENTER_NAME    = EARTH
REF_FRAME      = TEME
TIME_SYSTEM    = UTC
MEAN_ELEMENT_THEORY = SGP/SGP4

EPOCH          = 2026-02-28T12:27:11.287296
MEAN_MOTION    = 14.16858720
ECCENTRICITY   = .0010772
INCLINATION    = 70.9993
RA_OF_ASC_NODE = 207.6901
ARG_OF_PERICENTER = 113.1916
MEAN_ANOMALY   = 309.3087

EPHEMERIS_TYPE = 0
CLASSIFICATION_TYPE = U
NORAD_CAT_ID   = 22220
ELEMENT_SET_NO = 999
REV_AT_EPOCH   = 72053
BSTAR          = .13801E-3
MEAN_MOTION_DOT = .229E-5
MEAN_MOTION_DDOT = 0

CCSDS_OMM_VERS = 2.0
CREATION_DATE  = 
ORIGINATOR     = 

OBJECT_NAME    = COSMOS 2221
OBJECT_ID      = 1992-080A
CENTER_NAME    = EARTH
REF_FRAME      = TEME
TIME_SYSTEM    = UTC
MEAN_ELEMENT_THEORY = SGP/SGP4

EPOCH          = 2026-02-28T08:11:21.451200
MEAN_MOTION    = 14.96159019
ECCENTRICITY   = .0013223
INCLINATION    = 82.5023
RA_OF_ASC_NODE = 288.0368
ARG_OF_PERICENTER = 220.1915
MEAN_ANOMALY   = 139.8330

EPHEMERIS_TYPE = 0
CLASSIFICATION_TYPE = U
NORAD_CAT_ID   = 22236
ELEMENT_SET_NO = 999
REV_AT_EPOCH   = 77939
BSTAR          = .16193E-3
MEAN_MOTION_DOT = .1851E-4
MEAN_MOTION_DDOT = 0

CCSDS_OMM_VERS = 2.0
CREATION_DATE  = 
ORIGINATOR     = 

OBJECT_NAME    = SL-16 R/B
OBJECT_ID      = 1992-093B
CENTER_NAME    = EARTH
REF_FRAME      = TEME
TIME_SYSTEM    = UTC
MEAN_ELEMENT_THEORY = SGP/SGP4

EPOCH          = 2026-02-28T08:10:08.623776
MEAN_MOTION    = 14.15449728
ECCENTRICITY   = .000615
INCLINATION    = 71.0233
RA_OF_ASC_NODE = 23.8910
ARG_OF_PERICENTER = 303.7670
MEAN_ANOMALY   = 56.2866

EPHEMERIS_TYPE = 0
CLASSIFICATION_TYPE = U
NORAD_CAT_ID   = 22285
ELEMENT_SET_NO = 999
REV_AT_EPOCH   = 71183
BSTAR          = .13123E-4
MEAN_MOTION_DOT = -.22E-6
MEAN_MOTION_DDOT = 0

CCSDS_OMM_VERS = 2.0
CREATION_DATE  = 
ORIGINATOR     = 

OBJECT_NAME    = COSMOS 2228
OBJECT_ID      = 1992-094A
CENTER_NAME    = EARTH
REF_FRAME      = TEME
TIME_SYSTEM    = UTC
MEAN_ELEMENT_THEORY = SGP/SGP4

EPOCH          = 2026-02-28T11:56:16.644768
MEAN_MOTION    = 14.97135925
ECCENTRICITY   = .0017398
INCLINATION    = 82.5144
RA_OF_ASC_NODE = 246.1136
ARG_OF_PERICENTER = 337.3079
MEAN_ANOMALY   = 22.7372

EPHEMERIS_TYPE = 0
CLASSIFICATION_TYPE = U
NORAD_CAT_ID   = 22286
ELEMENT_SET_NO = 999
REV_AT_EPOCH   = 77468
BSTAR          = .17996E-3
MEAN_MOTION_DOT = .2109E-4
MEAN_MOTION_DDOT = 0

CCSDS_OMM_VERS = 2.0
CREATION_DATE  = 
ORIGINATOR     = 

OBJECT_NAME    = SL-16 R/B
OBJECT_ID      = 1993-016B
CENTER_NAME    = EARTH
REF_FRAME      = TEME
TIME_SYSTEM    = UTC
MEAN_ELEMENT_THEORY = SGP/SGP4

EPOCH          = 2026-02-28T10:48:47.252160
MEAN_MOTION    = 14.15302859
ECCENTRICITY   = .0011156
INCLINATION    = 71.0051
RA_OF_ASC_NODE = 234.5866
ARG_OF_PERICENTER = 327.1613
MEAN_ANOMALY   = 32.8815

EPHEMERIS_TYPE = 0
CLASSIFICATION_TYPE = U
NORAD_CAT_ID   = 22566
ELEMENT_SET_NO = 999
REV_AT_EPOCH   = 70086
BSTAR          = .18783E-3
MEAN_MOTION_DOT = .318E-5
MEAN_MOTION_DDOT = 0

CCSDS_OMM_VERS = 2.0
CREATION_DATE  = 
ORIGINATOR     = 

OBJECT_NAME    = COSMOS 2242
OBJECT_ID      = 1993-024A
CENTER_NAME    = EARTH
REF_FRAME      = TEME
TIME_SYSTEM    = UTC
MEAN_ELEMENT_THEORY = SGP/SGP4

EPOCH          = 2026-02-28T08:12:24.583680
MEAN_MOTION    = 14.96504577
ECCENTRICITY   = .0015902
INCLINATION    = 82.5161
RA_OF_ASC_NODE = 275.6595
ARG_OF_PERICENTER = 342.1608
MEAN_ANOMALY   = 17.9053

EPHEMERIS_TYPE = 0
CLASSIFICATION_TYPE = U
NORAD_CAT_ID   = 22626
ELEMENT_SET_NO = 999
REV_AT_EPOCH   = 77899
BSTAR          = .17365E-3
MEAN_MOTION_DOT = .2003E-4
MEAN_MOTION_DDOT = 0

CCSDS_OMM_VERS = 2.0
CREATION_DATE  = 
ORIGINATOR     = 

OBJECT_NAME    = SL-16 R/B
OBJECT_ID      = 1993-059B
CENTER_NAME    = EARTH
REF_FRAME      = TEME
TIME_SYSTEM    = UTC
MEAN_ELEMENT_THEORY = SGP/SGP4

EPOCH          = 2026-02-28T07:13:56.324640
MEAN_MOTION    = 14.17230966
ECCENTRICITY   = .0018907
INCLINATION    = 70.9911
RA_OF_ASC_NODE = 30.9233
ARG_OF_PERICENTER = 229.5916
MEAN_ANOMALY   = 130.3559

EPHEMERIS_TYPE = 0
CLASSIFICATION_TYPE = U
NORAD_CAT_ID   = 22803
ELEMENT_SET_NO = 999
REV_AT_EPOCH   = 67820
BSTAR          = .13439E-3
MEAN_MOTION_DOT = .224E-5
MEAN_MOTION_DDOT = 0

CCSDS_OMM_VERS = 2.0
CREATION_DATE  = 
ORIGINATOR     = 

OBJECT_NAME    = ARIANE 40 R/B
OBJECT_ID      = 1993-061H
CENTER_NAME    = EARTH
REF_FRAME      = TEME
TIME_SYSTEM    = UTC
MEAN_ELEMENT_THEORY = SGP/SGP4

EPOCH          = 2026-02-28T11:32:32.637120
MEAN_MOTION    = 14.32855270
ECCENTRICITY   = .0009728
INCLINATION    = 98.4937
RA_OF_ASC_NODE = 128.5496
ARG_OF_PERICENTER = 315.5497
MEAN_ANOMALY   = 44.4906

EPHEMERIS_TYPE = 0
CLASSIFICATION_TYPE = U
NORAD_CAT_ID   = 22830
ELEMENT_SET_NO = 999
REV_AT_EPOCH   = 69278
BSTAR          = .9567E-4
MEAN_MOTION_DOT = .218E-5
MEAN_MOTION_DDOT = 0

CCSDS_OMM_VERS = 2.0
CREATION_DATE  = 
ORIGINATOR     = 

OBJECT_NAME    = COSMOS 2278
OBJECT_ID      = 1994-023A
CENTER_NAME    = EARTH
REF_FRAME      = TEME
TIME_SYSTEM    = UTC
MEAN_ELEMENT_THEORY = SGP/SGP4

EPOCH          = 2026-02-28T11:23:04.208064
MEAN_MOTION    = 14.14373010
ECCENTRICITY   = .0007529
INCLINATION    = 71.0535
RA_OF_ASC_NODE = 194.3753
ARG_OF_PERICENTER = 32.0320
MEAN_ANOMALY   = 328.1259

EPHEMERIS_TYPE = 0
CLASSIFICATION_TYPE = U
NORAD_CAT_ID   = 23087
ELEMENT_SET_NO = 999
REV_AT_EPOCH   = 64350
BSTAR          = .21899E-3
MEAN_MOTION_DOT = .372E-5
MEAN_MOTION_DDOT = 0

CCSDS_OMM_VERS = 2.0
CREATION_DATE  = 
ORIGINATOR     = 

OBJECT_NAME    = SL-16 R/B
OBJECT_ID      = 1994-023B
CENTER_NAME    = EARTH
REF_FRAME      = TEME
TIME_SYSTEM    = UTC
MEAN_ELEMENT_THEORY = SGP/SGP4

EPOCH          = 2026-02-28T10:54:09.933696
MEAN_MOTION    = 14.15013387
ECCENTRICITY   = .0005471
INCLINATION    = 70.9987
RA_OF_ASC_NODE = 90.2841
ARG_OF_PERICENTER = 294.5045
MEAN_ANOMALY   = 65.5507

EPHEMERIS_TYPE = 0
CLASSIFICATION_TYPE = U
NORAD_CAT_ID   = 23088
ELEMENT_SET_NO = 999
REV_AT_EPOCH   = 64478
BSTAR          = .21018E-4
MEAN_MOTION_DOT = -.7E-7
MEAN_MOTION_DDOT = 0

